[{"OBJECT_NAME":"STARLINK-4437","OBJECT_ID":"2022-099AT","EPOCH":"2026-03-09T21:54:53.695872","MEAN_MOTION":15.05661883,"ECCENTRICITY":5.728e-5,"INCLINATION":97.6026,"RA_OF_ASC_NODE":191.3997,"ARG_OF_PERICENTER":130.4613,"MEAN_ANOMALY":229.6664,"EPHEMERIS_TYPE":0,"CLASSIFICATION_TYPE":"U","NORAD_CAT_ID":53506,"ELEMENT_SET_NO":999,"REV_AT_EPOCH":19608,"BSTAR":-0.00012770879,"MEAN_MOTION_DOT":-1.903e-5,"MEAN_MOTION_DDOT":0},{"OBJECT_NAME":"RAPIDEYE 5","OBJECT_ID":"2008-040B","EPOCH":"2026-03-09T15:17:22.403904","MEAN_MOTION":15.02179038,"ECCENTRICITY":0.0014834,"INCLINATION":97.3944,"RA_OF_ASC_NODE":91.3825,"ARG_OF_PERICENTER":86.9831,"MEAN_ANOMALY":273.3091,"EPHEMERIS_TYPE":0,"CLASSIFICATION_TYPE":"U","NORAD_CAT_ID":33313,"ELEMENT_SET_NO":999,"REV_AT_EPOCH":95055,"BSTAR":0.00014028,"MEAN_MOTION_DOT":1.794e-5,"MEAN_MOTION_DDOT":0}]
